NORAD_CAT_ID,OBJECT_NAME,OBJECT_TYPE,EPOCH,MEAN_MOTION,ECCENTRICITY,INCLINATION,RA_OF_ASC_NODE,ARG_OF_PERICENTER,MEAN_ANOMALY,BSTAR,MEAN_MOTION_DOT,MEAN_MOTION_DDOT,TLE_LINE0,TLE_LINE1,TLE_LINE2,SEMIMAJOR_AXIS,PERIOD,APOGEE,PERIGEE,DECAYED
53906.0,STARLINK-5054,PAYLOAD,2024-03-31 03:52:58,15.10477262,0.0001286,53.2129,254.659,90.5834,269.5306,3.4523e-05,2.82e-06,0.0,0 STARLINK-5054,1 53906U 22119W   24091.16179100  .00000282  00000-0  34523-4 0  9992,2 53906  53.2129 254.6590 0001286  90.5834 269.5306 15.10477262 84866,6912.88,95.334,535.634,533.856,0.0
53906.0,STARLINK-5054,PAYLOAD,2024-03-31 18:10:31,15.10473836,0.0001722,53.2174,251.9791,91.6887,268.4303,0.00011117,1.558e-05,0.0,0 STARLINK-5054,1 53906U 22119W   24091.75730504  .00001558  00000-0  11117-3 0  9998,2 53906  53.2174 251.9791 0001722  91.6887 268.4303 15.10473836 84536,6912.891,95.334,535.946,533.566,0.0
53906.0,STARLINK-5054,PAYLOAD,2024-04-01 03:42:12,15.10478156,0.0001678,53.2169,250.1927,88.0888,272.0297,0.00012858,1.849e-05,0.0,0 STARLINK-5054,1 53906U 22119W   24092.15431158  .00001849  00000-0  12858-3 0  9992,2 53906  53.2169 250.1927 0001678  88.0888 272.0297 15.10478156 85010,6912.878,95.334,535.903,533.583,0.0
53906.0,STARLINK-5054,PAYLOAD,2024-04-01 19:35:01,15.10481148,0.000105,53.217,247.2134,74.3424,285.7684,0.00010246,1.414e-05,0.0,0 STARLINK-5054,1 53906U 22119W   24092.81599242  .00001414  00000-0  10246-3 0  9991,2 53906  53.2170 247.2134 0001050  74.3424 285.7684 15.10481148 84696,6912.869,95.334,535.459,534.008,0.0
53906.0,STARLINK-5054,PAYLOAD,2024-04-02 16:13:42,15.10475865,0.0001243,53.2184,243.3412,88.432,271.6815,8.1034e-05,1.057e-05,0.0,0 STARLINK-5054,1 53906U 22119W   24093.67618450  .00001057  00000-0  81034-4 0  9996,2 53906  53.2184 243.3412 0001243  88.4320 271.6815 15.10475865 84826,6912.885,95.334,535.609,533.89,0.0
53906.0,STARLINK-5054,PAYLOAD,2024-04-03 09:41:48,15.10473993,0.000113,53.2167,240.0679,76.4483,283.6635,0.0001128,1.586e-05,0.0,0 STARLINK-5054,1 53906U 22119W   24094.40403373  .00001586  00000-0  11280-3 0  9996,2 53906  53.2167 240.0679 0001130  76.4483 283.6635 15.10473993 85350,6912.89,95.334,535.537,533.974,0.0
53906.0,STARLINK-5054,PAYLOAD,2024-04-03 16:02:56,15.10475136,0.000109,53.2167,238.8766,76.1313,283.9801,9.5933e-05,1.305e-05,0.0,0 STARLINK-5054,1 53906U 22119W   24094.66870600  .00001305  00000-0  95933-4 0  9992,2 53906  53.2167 238.8766 0001090  76.1313 283.9801 15.10475136 85399,6912.887,95.334,535.505,533.998,0.0
53906.0,STARLINK-5054,PAYLOAD,2024-04-04 03:09:52,15.10500286,5.5e-05,53.2174,236.793,346.1158,13.982,0.00016044,2.381e-05,0.0,0 STARLINK-5054,1 53906U 22119W   24095.13186158  .00002381  00000-0  16044-3 0  9993,2 53906  53.2174 236.7930 0000550 346.1158  13.9820 15.10500286 85043,6912.81,95.333,535.055,534.295,0.0
53906.0,STARLINK-5054,PAYLOAD,2024-04-04 12:41:36,15.10475932,0.0001423,53.2163,235.0049,90.0937,270.0219,3.0957e-05,2.23e-06,0.0,0 STARLINK-5054,1 53906U 22119W   24095.52889325  .00000223  00000-0  30957-4 0  9995,2 53906  53.2163 235.0049 0001423  90.0937 270.0219 15.10475932 85108,6912.885,95.334,535.733,533.766,0.0
53906.0,STARLINK-5054,PAYLOAD,2024-04-04 14:16:53,15.10475808,0.0001356,53.2169,234.7078,88.1355,271.9794,2.3852e-05,1.04e-06,0.0,0 STARLINK-5054,1 53906U 22119W   24095.59506172  .00000104  00000-0  23852-4 0  9992,2 53906  53.2169 234.7078 0001356  88.1355 271.9794 15.10475808 85536,6912.885,95.334,535.687,533.813,0.0
53906.0,STARLINK-5054,PAYLOAD,2024-04-04 15:52:09,15.10482227,0.0001244,53.2172,234.4098,85.6456,274.4679,1.0601e-06,-2.75e-06,0.0,0 STARLINK-5054,1 53906U 22119W   24095.66122650 -.00000275  00000-0  10601-5 0  9994,2 53906  53.2172 234.4098 0001244  85.6456 274.4679 15.10482227 85543,6912.865,95.334,535.59,533.87,0.0
53906.0,STARLINK-5054,PAYLOAD,2024-04-05 12:30:48,15.10497979,0.0001289,53.2179,230.5397,89.0146,271.0995,0.00022588,3.472e-05,0.0,0 STARLINK-5054,1 53906U 22119W   24096.52138918  .00003472  00000-0  22588-3 0  9990,2 53906  53.2179 230.5397 0001289  89.0146 271.0995 15.10497979 85254,6912.817,95.333,535.573,533.791,0.0
53906.0,STARLINK-5054,PAYLOAD,2024-04-05 15:41:23,15.10476931,0.0001503,53.2166,229.9425,95.876,264.2405,3.3954e-05,2.73e-06,0.0,0 STARLINK-5054,1 53906U 22119W   24096.65373940  .00000273  00000-0  33954-4 0  9996,2 53906  53.2166 229.9425 0001503  95.8760 264.2405 15.10476931 85693,6912.881,95.334,535.785,533.707,0.0
53906.0,STARLINK-5054,PAYLOAD,2024-04-06 09:09:30,15.10465405,0.0001376,53.2186,226.6678,93.4435,266.6715,-2.6515e-05,-7.34e-06,0.0,0 STARLINK-5054,1 53906U 22119W   24097.38160351 -.00000734  00000-0 -26515-4 0  9996,2 53906  53.2186 226.6678 0001376  93.4435 266.6715 15.10465405 85380,6912.917,95.335,535.733,533.83,0.0
53906.0,STARLINK-5054,PAYLOAD,2024-04-06 15:30:37,15.10471142,0.0001411,53.2171,225.4782,90.2056,269.9098,3.1998e-05,2.4e-06,0.0,0 STARLINK-5054,1 53906U 22119W   24097.64626738  .00000240  00000-0  31998-4 0  9992,2 53906  53.2171 225.4782 0001411  90.2056 269.9098 15.10471142 85847,6912.899,95.334,535.74,533.789,0.0
53906.0,STARLINK-5054,PAYLOAD,2024-04-07 08:58:44,15.1048039,0.0001357,53.2176,222.2044,102.8007,257.3138,-0.00019919,-3.607e-05,0.0,0 STARLINK-5054,1 53906U 22119W   24098.37412310 -.00003607  00000-0 -19919-3 0  9992,2 53906  53.2176 222.2044 0001357 102.8007 257.3138 15.10480390 85956,6912.871,95.334,535.674,533.798,0.0
53906.0,STARLINK-5054,PAYLOAD,2024-04-07 15:19:51,15.10483313,0.0001322,53.217,221.0119,106.7445,253.3693,-0.00020724,-3.742e-05,0.0,0 STARLINK-5054,1 53906U 22119W   24098.63879356 -.00003742  00000-0 -20724-3 0  9994,2 53906  53.2170 221.0119 0001322 106.7445 253.3693 15.10483313 85995,6912.862,95.334,535.641,533.813,0.0
53906.0,STARLINK-5054,PAYLOAD,2024-04-08 00:51:33,15.10463527,0.0001407,53.2171,219.2239,94.3066,265.8088,0.00014552,2.13e-05,0.0,0 STARLINK-5054,1 53906U 22119W   24099.03580826  .00002130  00000-0  14552-3 0  9990,2 53906  53.2171 219.2239 0001407  94.3066 265.8088 15.10463527 85635,6912.922,95.335,535.76,533.815,0.0
53906.0,STARLINK-5054,PAYLOAD,2024-04-08 07:12:41,15.10471358,0.0001363,53.2167,218.0321,91.1973,268.9176,8.7415e-05,1.163e-05,0.0,0 STARLINK-5054,1 53906U 22119W   24099.30048001  .00001163  00000-0  87415-4 0  9998,2 53906  53.2167 218.0321 0001363  91.1973 268.9176 15.10471358 86096,6912.898,95.334,535.706,533.821,0.0
53906.0,STARLINK-5054,PAYLOAD,2024-04-09 07:01:55,15.10474406,0.000141,53.2199,213.5659,95.0431,265.0723,0.00014639,2.145e-05,0.0,0 STARLINK-5054,1 53906U 22119W   24100.29300325  .00002145  00000-0  14639-3 0  9997,2 53906  53.2199 213.5659 0001410  95.0431 265.0723 15.10474406 85823,6912.889,95.334,535.729,533.779,0.0
53906.0,STARLINK-5054,PAYLOAD,2024-04-11 13:03:39,15.09295058,0.0002559,53.2166,203.4474,342.0909,17.9993,-0.0040728,-0.00065331,0.0,0 STARLINK-5054,1 53906U 22119W   24102.54420370 -.00065331  00000-0 -40728-2 0  9995,2 53906  53.2166 203.4474 0002559 342.0909  17.9993 15.09295058 86163,6916.49,95.409,540.125,536.585,0.0
53906.0,STARLINK-5054,PAYLOAD,2024-04-11 14:39:02,15.09276421,0.0004761,53.2164,203.1505,355.4848,4.6101,-0.004185,-0.00067089,0.0,0 STARLINK-5054,1 53906U 22119W   24102.61044035 -.00067089  00000-0 -41850-2 0  9992,2 53906  53.2164 203.1505 0004761 355.4848   4.6101 15.09276421 86594,6916.547,95.41,541.705,535.119,0.0
53906.0,STARLINK-5054,PAYLOAD,2024-04-11 22:00:00,15.08844993,0.0001006,53.215,201.7727,82.1422,144.0423,-0.001126,-0.00018165,0.0,0 STARLINK-5054,1 53906U 22119W   24102.91667824 -.00018165  00000-0 -11260-2 0  9995,2 53906  53.2150 201.7727 0001006  82.1422 144.0423 15.08844993 86219,6917.865,95.437,540.426,539.034,0.0
53906.0,STARLINK-5054,PAYLOAD,2024-04-12 14:00:01,15.0888239,0.0001084,53.2151,198.7806,85.3312,164.0633,-0.0057491,-0.00090737,0.0,0 STARLINK-5054,1 53906U 22119W   24103.58334491 -.00090737  00000-0 -57491-2 0  9991,2 53906  53.2151 198.7806 0001084  85.3312 164.0633 15.08882390 86311,6917.751,95.435,540.366,538.866,0.0
53906.0,STARLINK-5054,PAYLOAD,2024-04-12 22:00:00,15.08824903,9.96e-05,53.2151,197.2834,93.5612,167.4402,-0.00066054,-0.0001078,0.0,0 STARLINK-5054,1 53906U 22119W   24103.91667824 -.00010780  00000-0 -66054-3 0  9993,2 53906  53.2151 197.2834 0000996  93.5612 167.4402 15.08824903  5836,6917.927,95.439,540.481,539.103,0.0
53906.0,STARLINK-5054,PAYLOAD,2024-04-13 06:00:02,15.0881962,0.000107,53.2153,195.7861,103.9283,168.7002,0.0029034,0.00046197,0.0,0 STARLINK-5054,1 53906U 22119W   24104.25002315  .00046197  00000-0  29034-2 0  9994,2 53906  53.2153 195.7861 0001070 103.9283 168.7002 15.08819620 86429,6917.943,95.439,540.548,539.067,0.0
53906.0,STARLINK-5054,PAYLOAD,2024-04-13 14:00:01,15.08840532,0.0001039,53.2152,194.2915,85.3563,198.7914,-0.0017426,-0.00027914,0.0,0 STARLINK-5054,1 53906U 22119W   24104.58334491 -.00027914  00000-0 -17426-2 0  9993,2 53906  53.2152 194.2915 0001039  85.3563 198.7914 15.08840532 86477,6917.879,95.438,540.463,539.025,0.0
53906.0,STARLINK-5054,PAYLOAD,2024-04-13 22:00:00,15.08843918,9.68e-05,53.2152,192.7942,84.2428,211.4932,-0.00051738,-8.513e-05,0.0,0 STARLINK-5054,1 53906U 22119W   24104.91667824 -.00008513  00000-0 -51738-3 0  9998,2 53906  53.2152 192.7942 0000968  84.2428 211.4932 15.08843918  5811,6917.868,95.437,540.403,539.064,0.0
53906.0,STARLINK-5054,PAYLOAD,2024-04-14 06:00:00,15.08855303,0.000106,53.2154,191.297,94.7269,212.6041,0.0018523,0.00029327,0.0,0 STARLINK-5054,1 53906U 22119W   24105.25001157  .00029327  00000-0  18523-2 0  9995,2 53906  53.2154 191.2970 0001060  94.7269 212.6041 15.08855303 86578,6917.834,95.437,540.432,538.965,0.0
53906.0,STARLINK-5054,PAYLOAD,2024-04-14 14:00:01,15.08852441,0.0001192,53.2153,189.8024,83.0583,235.8947,-0.0037392,-0.00059327,0.0,0 STARLINK-5054,1 53906U 22119W   24105.58334491 -.00059327  00000-0 -37392-2 0  9991,2 53906  53.2153 189.8024 0001192  83.0583 235.8947 15.08852441 86624,6917.842,95.437,540.532,538.883,0.0
